GLOBALSTAR M040 [-]     
1 25622U 99004B   24114.56904810 -.00000088  00000+0  89396-4 0  9999
2 25622  51.9913 254.6762 0001078 154.2698 285.2126 12.61971548162278
GLOBALSTAR M036 [-]     
1 25623U 99004C   24114.62660330 -.00000095  00000+0 -17338-3 0  9998
2 25623  51.9967 266.1574 0010686 327.8417 114.9226 11.86566581129173
GLOBALSTAR M038 [-]     
1 25624U 99004D   24114.42415273 -.00000030  00000+0  53281-3 0  9996
2 25624  51.9962 200.4103 0001628 244.4588 196.0789 12.32497651150618
GLOBALSTAR M041 [-]     
1 25650U 99012B   24114.57468430 -.00000096  00000+0 -13637-3 0  9997
2 25650  52.0017 220.2375 0002584 195.8883 164.1873 11.96660072128040
GLOBALSTAR M046 [-]     
1 25651U 99012C   24114.48098559 -.00000148  00000+0 -65274-3 0  9991
2 25651  52.0062 317.2915 0002909 123.7921 239.0838 12.09388981132883
GLOBALSTAR M037 [+]     
1 25652U 99012D   24113.92482295 -.00000029  00000+0  41439-3 0  9998
2 25652  52.0030  23.8779 0001984 356.0406  82.6569 12.62402226158191
